OBJECT_NAME,OBJECT_ID,EPOCH,MEAN_MOTION,ECCENTRICITY,INCLINATION,RA_OF_ASC_NODE,ARG_OF_PERICENTER,MEAN_ANOMALY,EPHEMERIS_TYPE,CLASSIFICATION_TYPE,NORAD_CAT_ID,ELEMENT_SET_NO,REV_AT_EPOCH,BSTAR,MEAN_MOTION_DOT,MEAN_MOTION_DDOT
HAWK-5A,2022-057AB,2026-06-26T17:13:44.641056,15.51715601,.0004861,97.6611,337.1833,47.3838,312.7823,0,U,52757,999,22782,.31415E-3,.18631E-3,0
HAWK-6B,2023-011A,2026-06-26T16:35:36.081312,15.23012495,.0001343,40.4995,296.6350,102.1828,257.9132,0,U,55324,999,18929,.19457E-3,.448E-4,0
HAWK-6C,2023-011C,2026-06-26T16:34:41.486016,15.23005777,.0001988,40.4978,293.4764,77.7700,282.3332,0,U,55326,999,18930,.18895E-3,.4344E-4,0
HAWK-6A,2023-011D,2026-06-26T15:00:19.178208,15.23009944,.0001592,40.4993,295.4841,70.9092,289.1890,0,U,55327,999,18929,.19735E-3,.4547E-4,0
HAWK-7A,2023-054P,2026-06-26T09:55:01.020000,15.27451057,.0003572,97.2698,64.5160,36.2318,323.9163,0,U,56191,999,17843,.23225E-3,.6168E-4,0
HAWK-7B,2023-054R,2026-06-26T09:54:54.749952,15.27449541,.0003183,97.2725,62.7833,52.0980,308.0547,0,U,56193,999,17843,.23624E-3,.6275E-4,0
HAWK-7C,2023-054Y,2026-06-26T11:29:04.776864,15.27449628,.0002996,97.2702,63.6128,42.0981,318.0488,0,U,56200,999,17844,.21415E-3,.5681E-4,0
